start=new Date('2022-02-10T00:00:00.000Z').valueOf();
sats=[{"DECAY_DATE":null,"REF_FRAME":"TEME","OBJECT_ID":"2020-012AH","INCLINATION":"53.0500","REV_AT_EPOCH":"11124","EPOCH":"2022-02-09T12:53:03.259392","FILE":"3296271","LAUNCH_DATE":"2020-02-17","MEAN_MOTION_DOT":"-0.00009779","PERIAPSIS":"335.725","PERIOD":"91.328","MEAN_ELEMENT_THEORY":"SGP4","EPHEMERIS_TYPE":"0","TLE_LINE2":"2 45209  53.0500 123.0608 0005947 310.3855  49.6644 15.76728044111241","MEAN_MOTION_DDOT":"0.0000000000000","APOAPSIS":"343.715","MEAN_MOTION":"15.76728044","SEMIMAJOR_AXIS":"6717.855","NORAD_CAT_ID":"45209","RA_OF_ASC_NODE":"123.0608","COUNTRY_CODE":"US","ARG_OF_PERICENTER":"310.3855","CENTER_NAME":"EARTH","OBJECT_TYPE":"PAYLOAD","BSTAR":"-0.00005569000000","ELEMENT_SET_NO":"999","TIME_SYSTEM":"UTC","RCS_SIZE":"LARGE","MEAN_ANOMALY":"49.6644","SITE":"AFETR","TLE_LINE1":"1 45209U 20012AH  22040.53684328 -.00009779  00000-0 -55690-4 0  9995","GP_ID":"195648649","CLASSIFICATION_TYPE":"U","OBJECT_NAME":"STARLINK-1218","ECCENTRICITY":"0.00059470"},{"ELEMENT_SET_NO":"999","MEAN_ANOMALY":"280.1115","SITE":"AFETR","TLE_LINE1":"1 45210U 20012AJ  22040.51914646  .00002470  00000-0  18468-3 0  9994","TIME_SYSTEM":"UTC","RCS_SIZE":"LARGE","ARG_OF_PERICENTER":"80.0029","COUNTRY_CODE":"US","OBJECT_TYPE":"PAYLOAD","BSTAR":"0.00018468000000","CENTER_NAME":"EARTH","ECCENTRICITY":"0.00013750","CLASSIFICATION_TYPE":"U","OBJECT_NAME":"STARLINK-1219","GP_ID":"195638522","OBJECT_ID":"2020-012AJ","REF_FRAME":"TEME","EPOCH":"2022-02-09T12:27:34.254144","INCLINATION":"53.0549","REV_AT_EPOCH":"11055","DECAY_DATE":null,"MEAN_MOTION":"15.06392616","APOAPSIS":"548.188","SEMIMAJOR_AXIS":"6925.371","NORAD_CAT_ID":"45210","RA_OF_ASC_NODE":"231.7737","MEAN_MOTION_DOT":"0.00002470","PERIAPSIS":"546.284","FILE":"3295989","LAUNCH_DATE":"2020-02-17","TLE_LINE2":"2 45210  53.0549 231.7737 0001375  80.0029 280.1115 15.06392616110554","MEAN_MOTION_DDOT":"0.0000000000000","PERIOD":"95.593","MEAN_ELEMENT_THEORY":"SGP4","EPHEMERIS_TYPE":"0"},{"GP_ID":"195637771","CLASSIFICATION_TYPE":"U","OBJECT_NAME":"STARLINK-1231","ECCENTRICITY":"0.00016520","COUNTRY_CODE":"US","ARG_OF_PERICENTER":"65.0241","CENTER_NAME":"EARTH","OBJECT_TYPE":"PAYLOAD","BSTAR":"0.00008229900000","ELEMENT_SET_NO":"999","TIME_SYSTEM":"UTC","RCS_SIZE":"LARGE","MEAN_ANOMALY":"295.0919","SITE":"AFETR","TLE_LINE1":"1 45212U 20012AL  22040.55229329  .00000944  00000-0  82299-4 0  9995","FILE":"3295989","LAUNCH_DATE":"2020-02-17","MEAN_MOTION_DOT":"0.00000944","PERIAPSIS":"546.068","MEAN_ELEMENT_THEORY":"SGP4","PERIOD":"95.592","EPHEMERIS_TYPE":"0","TLE_LINE2":"2 45212  53.0526 231.6089 0001652  65.0241 295.0919 15.06400642110621","MEAN_MOTION_DDOT":"0.0000000000000","MEAN_MOTION":"15.06400642","APOAPSIS":"548.356","SEMIMAJOR_AXIS":"6925.347","NORAD_CAT_ID":"45212","RA_OF_ASC_NODE":"231.6089","DECAY_DATE":null,"OBJECT_ID":"2020-012AL","REF_FRAME":"TEME","INCLINATION":"53.0526","REV_AT_EPOCH":"11062","EPOCH":"2022-02-09T13:15:18.140256"},{"SEMIMAJOR_AXIS":"6850.743","NORAD_CAT_ID":"45213","RA_OF_ASC_NODE":"228.0102","APOAPSIS":"473.793","MEAN_MOTION":"15.31074226","MEAN_MOTION_DDOT":"0.0000000000000","TLE_LINE2":"2 45213  53.0569 228.0102 0001729  15.5817 344.5235 15.31074226110724","EPHEMERIS_TYPE":"0","PERIOD":"94.052","MEAN_ELEMENT_THEORY":"SGP4","PERIAPSIS":"471.424","MEAN_MOTION_DOT":"0.00013181","LAUNCH_DATE":"2020-02-17","FILE":"3295989","EPOCH":"2022-02-09T12:53:23.965152","REV_AT_EPOCH":"11072","INCLINATION":"53.0569","OBJECT_ID":"2020-012AM","REF_FRAME":"TEME","DECAY_DATE":null,"ECCENTRICITY":"0.00017290","OBJECT_NAME":"STARLINK-1232","CLASSIFICATION_TYPE":"U","GP_ID":"195638021","TLE_LINE1":"1 45213U 20012AM  22040.53708293  .00013181  00000-0  44423-3 0  9999","SITE":"AFETR","MEAN_ANOMALY":"344.5235","RCS_SIZE":"LARGE","TIME_SYSTEM":"UTC","ELEMENT_SET_NO":"999","BSTAR":"0.00044423000000","OBJECT_TYPE":"PAYLOAD","CENTER_NAME":"EARTH","ARG_OF_PERICENTER":"15.5817","COUNTRY_CODE":"US"},{"OBJECT_NAME":"STARLINK-1233","CLASSIFICATION_TYPE":"U","ECCENTRICITY":"0.00019140","GP_ID":"195638272","ELEMENT_SET_NO":"999","RCS_SIZE":"LARGE","TIME_SYSTEM":"UTC","TLE_LINE1":"1 45214U 20012AN  22040.52650883  .00001418  00000-0  11410-3 0  9990","SITE":"AFETR","MEAN_ANOMALY":"289.8173","COUNTRY_CODE":"US","ARG_OF_PERICENTER":"70.3022","CENTER_NAME":"EARTH","BSTAR":"0.00011410000000","OBJECT_TYPE":"PAYLOAD","MEAN_MOTION":"15.06394376","APOAPSIS":"548.556","SEMIMAJOR_AXIS":"6925.366","NORAD_CAT_ID":"45214","RA_OF_ASC_NODE":"231.7323","LAUNCH_DATE":"2020-02-17","FILE":"3295989","PERIAPSIS":"545.905","MEAN_MOTION_DOT":"0.00001418","EPHEMERIS_TYPE":"0","PERIOD":"95.592","MEAN_ELEMENT_THEORY":"SGP4","MEAN_MOTION_DDOT":"0.0000000000000","TLE_LINE2":"2 45214  53.0549 231.7323 0001914  70.3022 289.8173 15.06394376110660","OBJECT_ID":"2020-012AN","REF_FRAME":"TEME","REV_AT_EPOCH":"11066","INCLINATION":"53.0549","EPOCH":"2022-02-09T12:38:10.362912","DECAY_DATE":null},{"GP_ID":"195646512","ECCENTRICITY":"0.00015370","OBJECT_NAME":"STARLINK-1245","CLASSIFICATION_TYPE":"U","OBJECT_TYPE":"PAYLOAD","BSTAR":"0.00023544000000","CENTER_NAME":"EARTH","ARG_OF_PERICENTER":"68.4967","COUNTRY_CODE":"US","MEAN_ANOMALY":"291.6186","TLE_LINE1":"1 45215U 20012AP  22040.78821617  .00003227  00000-0  23544-3 0  9995","SITE":"AFETR","TIME_SYSTEM":"UTC","RCS_SIZE":"LARGE","ELEMENT_SET_NO":"999","TLE_LINE2":"2 45215  53.0538 230.5533 0001537  68.4967 291.6186 15.06397529109763","MEAN_MOTION_DDOT":"0.0000000000000","PERIOD":"95.592","MEAN_ELEMENT_THEORY":"SGP4","EPHEMERIS_TYPE":"0","MEAN_MOTION_DOT":"0.00003227","PERIAPSIS":"546.157","FILE":"3296149","LAUNCH_DATE":"2020-02-17","SEMIMAJOR_AXIS":"6925.356","NORAD_CAT_ID":"45215","RA_OF_ASC_NODE":"230.5533","APOAPSIS":"548.286","MEAN_MOTION":"15.06397529","DECAY_DATE":null,"EPOCH":"2022-02-09T18:55:01.877088","INCLINATION":"53.0538","REV_AT_EPOCH":"10976","REF_FRAME":"TEME","OBJECT_ID":"2020-012AP"},{"DECAY_DATE":null,"REV_AT_EPOCH":"11067","INCLINATION":"53.0538","EPOCH":"2022-02-09T13:31:15.886848","REF_FRAME":"TEME","OBJECT_ID":"2020-012AR","EPHEMERIS_TYPE":"0","MEAN_ELEMENT_THEORY":"SGP4","PERIOD":"95.593","MEAN_MOTION_DDOT":"0.0000000000000","TLE_LINE2":"2 45217  53.0538 231.5689 0001656  71.3442 288.7727 15.06390999110675","LAUNCH_DATE":"2020-02-17","FILE":"3295989","PERIAPSIS":"546.094","MEAN_MOTION_DOT":"0.00001310","SEMIMAJOR_AXIS":"6925.376","NORAD_CAT_ID":"45217","RA_OF_ASC_NODE":"231.5689","APOAPSIS":"548.388","MEAN_MOTION":"15.06390999","CENTER_NAME":"EARTH","BSTAR":"0.00010685000000","OBJECT_TYPE":"PAYLOAD","COUNTRY_CODE":"US","ARG_OF_PERICENTER":"71.3442","RCS_SIZE":"LARGE","TIME_SYSTEM":"UTC","TLE_LINE1":"1 45217U 20012AR  22040.56337832  .00001310  00000-0  10685-3 0  9997","SITE":"AFETR","MEAN_ANOMALY":"288.7727","ELEMENT_SET_NO":"999","GP_ID":"195637271","OBJECT_NAME":"STARLINK-1271","CLASSIFICATION_TYPE":"U","ECCENTRICITY":"0.00016560"},{"DECAY_DATE":null,"OBJECT_ID":"2020-012AT","REF_FRAME":"TEME","INCLINATION":"53.0531","REV_AT_EPOCH":"11003","EPOCH":"2022-02-09T18:15:12.637152","FILE":"3296113","LAUNCH_DATE":"2020-02-17","MEAN_MOTION_DOT":"0.00004607","PERIAPSIS":"546.168","PERIOD":"95.592","MEAN_ELEMENT_THEORY":"SGP4","EPHEMERIS_TYPE":"0","TLE_LINE2":"2 45219  53.0531 210.6811 0001501  75.8444 284.2712 15.06401993110037","MEAN_MOTION_DDOT":"0.0000000000000","MEAN_MOTION":"15.06401993","APOAPSIS":"548.247","NORAD_CAT_ID":"45219","SEMIMAJOR_AXIS":"6925.342","RA_OF_ASC_NODE":"210.6811","COUNTRY_CODE":"US","ARG_OF_PERICENTER":"75.8444","CENTER_NAME":"EARTH","OBJECT_TYPE":"PAYLOAD","BSTAR":"0.00032797000000","ELEMENT_SET_NO":"999","TIME_SYSTEM":"UTC","RCS_SIZE":"LARGE","MEAN_ANOMALY":"284.2712","TLE_LINE1":"1 45219U 20012AT  22040.76056293  .00004607  00000-0  32797-3 0  9990","SITE":"AFETR","GP_ID":"195645323","CLASSIFICATION_TYPE":"U","OBJECT_NAME":"STARLINK-1187","ECCENTRICITY":"0.00015010"},{"LAUNCH_DATE":"2020-02-17","FILE":"3296267","PERIAPSIS":"546.025","MEAN_MOTION_DOT":"-0.00000406","EPHEMERIS_TYPE":"0","MEAN_ELEMENT_THEORY":"SGP4","PERIOD":"95.593","MEAN_MOTION_DDOT":"0.0000000000000","TLE_LINE2":"2 45221  53.0540 210.6708 0001763  76.5396 283.5789 15.06389455110044","MEAN_MOTION":"15.06389455","APOAPSIS":"548.467","RA_OF_ASC_NODE":"210.6708","SEMIMAJOR_AXIS":"6925.381","NORAD_CAT_ID":"45221","DECAY_DATE":null,"OBJECT_ID":"2020-012AV","REF_FRAME":"TEME","REV_AT_EPOCH":"11004","INCLINATION":"53.0540","EPOCH":"2022-02-09T18:20:30.901920","GP_ID":"195648784","OBJECT_NAME":"STARLINK-1189","CLASSIFICATION_TYPE":"U","ECCENTRICITY":"0.00017630","COUNTRY_CODE":"US","ARG_OF_PERICENTER":"76.5396","CENTER_NAME":"EARTH","BSTAR":"-0.00000832980000","OBJECT_TYPE":"PAYLOAD","ELEMENT_SET_NO":"999","RCS_SIZE":"LARGE","TIME_SYSTEM":"UTC","SITE":"AFETR","TLE_LINE1":"1 45221U 20012AV  22040.76424655 -.00000406  00000-0 -83298-5 0  9993","MEAN_ANOMALY":"283.5789"},{"ELEMENT_SET_NO":"999","MEAN_ANOMALY":"287.2085","SITE":"AFETR","TLE_LINE1":"1 45222U 20012AW  22040.57257429  .00000171  00000-0  30398-4 0  9995","TIME_SYSTEM":"UTC","RCS_SIZE":"LARGE","ARG_OF_PERICENTER":"72.9077","COUNTRY_CODE":"US","OBJECT_TYPE":"PAYLOAD","BSTAR":"0.00003039800000","CENTER_NAME":"EARTH","ECCENTRICITY":"0.00015860","OBJECT_NAME":"STARLINK-1191","CLASSIFICATION_TYPE":"U","GP_ID":"195638523","OBJECT_ID":"2020-012AW","REF_FRAME":"TEME","EPOCH":"2022-02-09T13:44:30.418656","INCLINATION":"53.0525","REV_AT_EPOCH":"11095","DECAY_DATE":null,"MEAN_MOTION":"15.06396968","APOAPSIS":"548.321","SEMIMAJOR_AXIS":"6925.358","NORAD_CAT_ID":"45222","RA_OF_ASC_NODE":"211.5321","MEAN_MOTION_DOT":"0.00000171","PERIAPSIS":"546.124","FILE":"3295989","LAUNCH_DATE":"2020-02-17","TLE_LINE2":"2 45222  53.0525 211.5321 0001586  72.9077 287.2085 15.06396968110955","MEAN_MOTION_DDOT":"0.0000000000000","MEAN_ELEMENT_THEORY":"SGP4","PERIOD":"95.592","EPHEMERIS_TYPE":"0"}];
